{
  "type": "FeatureCollection",
  "features": [
    {
      "type": "Feature",
      "properties": {
        "norad_id": 58701,
        "name": "TIANMU-1 16",
        "group": "weather",
        "lat": -70.84827645685375,
        "lon": -156.57074455063292,
        "alt_km": 497.45447534922823,
        "timestamp": "2025-12-26T11:25:44.866581+00:00",
        "meta_object_name": "TIANMU-1 16",
        "meta_object_id": "2024-004B",
        "meta_epoch": "2025-12-26T03:52:11.993088",
        "meta_mean_motion": 15.24612276,
        "meta_eccentricity": 0.000445,
        "meta_inclination": 97.457,
        "meta_ra_of_asc_node": 180.9586,
        "meta_arg_of_pericenter": 234.681,
        "meta_mean_anomaly": 125.4011,
        "meta_ephemeris_type": 0,
        "meta_classification_type": "U",
        "meta_norad_cat_id": 58701,
        "meta_element_set_no": 999,
        "meta_rev_at_epoch": 10939,
        "meta_bstar": 0.00028427,
        "meta_mean_motion_dot": 6.942e-05,
        "meta_mean_motion_ddot": 0,
        "tle_line1": "1 58701U 24004B   25360.16124992  .00006942  00000+0  28427-3 0  9997",
        "tle_line2": "2 58701  97.4570 180.9586 0004450 234.6810 125.4011 15.24612276109391"
      },
      "geometry": {
        "type": "Point",
        "coordinates": [
          -156.57074455063292,
          -70.84827645685375
        ]
      }
    },
    {
      "type": "Feature",
      "properties": {
        "norad_id": 58702,
        "name": "TIANMU-1 17",
        "group": "weather",
        "lat": 14.129389284954968,
        "lon": 179.79887987420142,
        "alt_km": 494.7917378125285,
        "timestamp": "2025-12-26T11:25:44.866590+00:00",
        "meta_object_name": "TIANMU-1 17",
        "meta_object_id": "2024-004C",
        "meta_epoch": "2025-12-26T05:03:58.449888",
        "meta_mean_motion": 15.24655961,
        "meta_eccentricity": 0.0003617,
        "meta_inclination": 97.4604,
        "meta_ra_of_asc_node": 181.4252,
        "meta_arg_of_pericenter": 235.206,
        "meta_mean_anomaly": 124.8838,
        "meta_ephemeris_type": 0,
        "meta_classification_type": "U",
        "meta_norad_cat_id": 58702,
        "meta_element_set_no": 999,
        "meta_rev_at_epoch": 10939,
        "meta_bstar": 0.00029433,
        "meta_mean_motion_dot": 7.199e-05,
        "meta_mean_motion_ddot": 0,
        "tle_line1": "1 58702U 24004C   25360.21109317  .00007199  00000+0  29433-3 0  9991",
        "tle_line2": "2 58702  97.4604 181.4252 0003617 235.2060 124.8838 15.24655961109392"
      },
      "geometry": {
        "type": "Point",
        "coordinates": [
          179.79887987420142,
          14.129389284954968
        ]
      }
    },
    {
      "type": "Feature",
      "properties": {
        "norad_id": 58703,
        "name": "TIANMU-1 18",
        "group": "weather",
        "lat": 73.17859206482798,
        "lon": 27.580128857175982,
        "alt_km": 486.0661478291395,
        "timestamp": "2025-12-26T11:25:44.866599+00:00",
        "meta_object_name": "TIANMU-1 18",
        "meta_object_id": "2024-004D",
        "meta_epoch": "2025-12-26T04:40:08.491872",
        "meta_mean_motion": 15.24638197,
        "meta_eccentricity": 0.0003009,
        "meta_inclination": 97.4621,
        "meta_ra_of_asc_node": 181.6069,
        "meta_arg_of_pericenter": 231.7291,
        "meta_mean_anomaly": 128.3676,
        "meta_ephemeris_type": 0,
        "meta_classification_type": "U",
        "meta_norad_cat_id": 58703,
        "meta_element_set_no": 999,
        "meta_rev_at_epoch": 10939,
        "meta_bstar": 0.00030174,
        "meta_mean_motion_dot": 7.378e-05,
        "meta_mean_motion_ddot": 0,
        "tle_line1": "1 58703U 24004D   25360.19454273  .00007378  00000+0  30174-3 0  9996",
        "tle_line2": "2 58703  97.4621 181.6069 0003009 231.7291 128.3676 15.24638197109393"
      },
      "geometry": {
        "type": "Point",
        "coordinates": [
          27.580128857175982,
          73.17859206482798
        ]
      }
    },
    {
      "type": "Feature",
      "properties": {
        "norad_id": 58990,
        "name": "INSAT-3DS",
        "group": "weather",
        "lat": -0.06352746414450644,
        "lon": -11.227321828850071,
        "alt_km": 35784.68734424236,
        "timestamp": "2025-12-26T11:25:44.866609+00:00",
        "meta_object_name": "INSAT-3DS",
        "meta_object_id": "2024-033A",
        "meta_epoch": "2025-12-25T23:43:34.512960",
        "meta_mean_motion": 1.00271049,
        "meta_eccentricity": 0.0001311,
        "meta_inclination": 0.0621,
        "meta_ra_of_asc_node": 99.2069,
        "meta_arg_of_pericenter": 176.6391,
        "meta_mean_anomaly": 256.8968,
        "meta_ephemeris_type": 0,
        "meta_classification_type": "U",
        "meta_norad_cat_id": 58990,
        "meta_element_set_no": 999,
        "meta_rev_at_epoch": 4533,
        "meta_bstar": 0,
        "meta_mean_motion_dot": -1.34e-06,
        "meta_mean_motion_ddot": 0,
        "tle_line1": "1 58990U 24033A   25359.98859390 -.00000134  00000+0  00000+0 0  9995",
        "tle_line2": "2 58990   0.0621  99.2069 0001311 176.6391 256.8968  1.00271049 45339"
      },
      "geometry": {
        "type": "Point",
        "coordinates": [
          -11.227321828850071,
          -0.06352746414450644
        ]
      }
    },
    {
      "type": "Feature",
      "properties": {
        "norad_id": 59051,
        "name": "METEOR-M2 4",
        "group": "weather",
        "lat": -78.91818233630448,
        "lon": 8.414590686077444,
        "alt_km": 821.060442691446,
        "timestamp": "2025-12-26T11:25:44.866618+00:00",
        "meta_object_name": "METEOR-M2 4",
        "meta_object_id": "2024-039A",
        "meta_epoch": "2025-12-26T05:03:57.070944",
        "meta_mean_motion": 14.22403315,
        "meta_eccentricity": 0.0006349,
        "meta_inclination": 98.6786,
        "meta_ra_of_asc_node": 316.9099,
        "meta_arg_of_pericenter": 317.7793,
        "meta_mean_anomaly": 42.2896,
        "meta_ephemeris_type": 0,
        "meta_classification_type": "U",
        "meta_norad_cat_id": 59051,
        "meta_element_set_no": 999,
        "meta_rev_at_epoch": 9467,
        "meta_bstar": 3.9335e-05,
        "meta_mean_motion_dot": 4.4e-07,
        "meta_mean_motion_ddot": 0,
        "tle_line1": "1 59051U 24039A   25360.21107721  .00000044  00000+0  39335-4 0  9999",
        "tle_line2": "2 59051  98.6786 316.9099 0006349 317.7793  42.2896 14.22403315 94674"
      },
      "geometry": {
        "type": "Point",
        "coordinates": [
          8.414590686077444,
          -78.91818233630448
        ]
      }
    },
    {
      "type": "Feature",
      "properties": {
        "norad_id": 60133,
        "name": "GOES 19",
        "group": "weather",
        "lat": 0.016992044334975955,
        "lon": -168.5465963835823,
        "alt_km": 35789.17414722976,
        "timestamp": "2025-12-26T11:25:44.866628+00:00",
        "meta_object_name": "GOES 19",
        "meta_object_id": "2024-119A",
        "meta_epoch": "2025-12-26T02:31:04.440000",
        "meta_mean_motion": 1.00270613,
        "meta_eccentricity": 0.0001081,
        "meta_inclination": 0.0424,
        "meta_ra_of_asc_node": 180.8341,
        "meta_arg_of_pericenter": 137.6202,
        "meta_mean_anomaly": 98.9833,
        "meta_ephemeris_type": 0,
        "meta_classification_type": "U",
        "meta_norad_cat_id": 60133,
        "meta_element_set_no": 999,
        "meta_rev_at_epoch": 522,
        "meta_bstar": 0,
        "meta_mean_motion_dot": -2.26e-06,
        "meta_mean_motion_ddot": 0,
        "tle_line1": "1 60133U 24119A   25360.10491250 -.00000226  00000+0  00000+0 0  9997",
        "tle_line2": "2 60133   0.0424 180.8341 0001081 137.6202  98.9833  1.00270613  5220"
      },
      "geometry": {
        "type": "Point",
        "coordinates": [
          -168.5465963835823,
          0.016992044334975955
        ]
      }
    },
    {
      "type": "Feature",
      "properties": {
        "norad_id": 65815,
        "name": "FENGYUN 3H",
        "group": "weather",
        "lat": 32.07911296159307,
        "lon": -65.71227658499761,
        "alt_km": 823.5950842120319,
        "timestamp": "2025-12-26T11:25:44.866638+00:00",
        "meta_object_name": "FENGYUN 3H",
        "meta_object_id": "2025-219A",
        "meta_epoch": "2025-12-26T02:49:14.034720",
        "meta_mean_motion": 14.1990818,
        "meta_eccentricity": 8.65e-05,
        "meta_inclination": 98.6602,
        "meta_ra_of_asc_node": 299.4185,
        "meta_arg_of_pericenter": 109.6936,
        "meta_mean_anomaly": 250.4334,
        "meta_ephemeris_type": 0,
        "meta_classification_type": "U",
        "meta_norad_cat_id": 65815,
        "meta_element_set_no": 999,
        "meta_rev_at_epoch": 1282,
        "meta_bstar": 6.5147e-05,
        "meta_mean_motion_dot": 9.5e-07,
        "meta_mean_motion_ddot": 0,
        "tle_line1": "1 65815U 25219A   25360.11752355  .00000095  00000+0  65147-4 0  9999",
        "tle_line2": "2 65815  98.6602 299.4185 0000865 109.6936 250.4334 14.19908180 12824"
      },
      "geometry": {
        "type": "Point",
        "coordinates": [
          -65.71227658499761,
          32.07911296159307
        ]
      }
    }
  ]
}